[
    {
        "Location": "A.R. shala",
        "Pincode": 411004,
        "State": "Maharashtra",
        "District": "Pune"
    },
    {
        "Location": "Afmc",
        "Pincode": 411040,
        "State": "Maharashtra",
        "District": "Pune"
    },
    {
        "Location": "Adhale Bk",
        "Pincode": 410506,
        "State": "Maharashtra",
        "District": "Pune"
    },
    {
        "Location": "Adivare",
        "Pincode": 410509,
        "State": "Maharashtra",
        "District": "Pune"
    },
    {
        "Location": "Agoti",
        "Pincode": 413132,
        "State": "Maharashtra",
        "District": "Pune"
    },
    {
        "Location": "Airport",
        "Pincode": 411032,
        "State": "Maharashtra",
        "District": "Pune"
    },
    {
        "Location": "Akurdi",
        "Pincode": 411035,
        "State": "Maharashtra",
        "District": "Pune"
    },
    {
        "Location": "Ala",
        "Pincode": 412411,
        "State": "Maharashtra",
        "District": "Pune"
    },
    {
        "Location": "Alande",
        "Pincode": 412205,
        "State": "Maharashtra",
        "District": "Pune"
    },
    {
        "Location": "Alandi Chorachi",
        "Pincode": 412201,
        "State": "Maharashtra",
        "District": "Pune"
    },
    {
        "Location": "Alandi Devachi",
        "Pincode": 412105,
        "State": "Maharashtra",
        "District": "Pune"
    },
    {
        "Location": "Alegaon",
        "Pincode": 412211,
        "State": "Maharashtra",
        "District": "Pune"
    },
    {
        "Location": "Alephata",
        "Pincode": 412411,
        "State": "Maharashtra",
        "District": "Pune"
    },
    {
        "Location": "Ambade",
        "Pincode": 412206,
        "State": "Maharashtra",
        "District": "Pune"
    },
    {
        "Location": "Ambale",
        "Pincode": 410507,
        "State": "Maharashtra",
        "District": "Pune"
    },
    {
        "Location": "Ambarvet",
        "Pincode": 411042,
        "State": "Maharashtra",
        "District": "Pune"
    },
    {
        "Location": "Ambavade",
        "Pincode": 412206,
        "State": "Maharashtra",
        "District": "Pune"
    },
    {
        "Location": "Ambavane",
        "Pincode": 410401,
        "State": "Maharashtra",
        "District": "Pune"
    },
    {
        "Location": "Ambegaon Bk",
        "Pincode": 411046,
        "State": "Maharashtra",
        "District": "Pune"
    },
    {
        "Location": "Ambeghar",
        "Pincode": 412206,
        "State": "Maharashtra",
        "District": "Pune"
    },
    {
        "Location": "Ambethan",
        "Pincode": 410501,
        "State": "Maharashtra",
        "District": "Pune"
    },
    {
        "Location": "Ambi",
        "Pincode": 410507,
        "State": "Maharashtra",
        "District": "Pune"
    },
    {
        "Location": "Amble",
        "Pincode": 412211,
        "State": "Maharashtra",
        "District": "Pune"
    },
    {
        "Location": "Amboli",
        "Pincode": 410505,
        "State": "Maharashtra",
        "District": "Pune"
    },
    {
        "Location": "Amdabad",
        "Pincode": 412218,
        "State": "Maharashtra",
        "District": "Pune"
    },
    {
        "Location": "Ammunition Factory khadki",
        "Pincode": 411003,
        "State": "Maharashtra",
        "District": "Pune"
    },
    {
        "Location": "Amondi",
        "Pincode": 412408,
        "State": "Maharashtra",
        "District": "Pune"
    },
    {
        "Location": "Anandnagar",
        "Pincode": 411051,
        "State": "Maharashtra",
        "District": "Pune"
    },
    {
        "Location": "Anantnagar Nigade",
        "Pincode": 412205,
        "State": "Maharashtra",
        "District": "Pune"
    },
    {
        "Location": "Andgaon",
        "Pincode": 411042,
        "State": "Maharashtra",
        "District": "Pune"
    },
    {
        "Location": "Andhalgaon",
        "Pincode": 412211,
        "State": "Maharashtra",
        "District": "Pune"
    },
    {
        "Location": "Ane",
        "Pincode": 412410,
        "State": "Maharashtra",
        "District": "Pune"
    },
    {
        "Location": "Anjanavale",
        "Pincode": 410502,
        "State": "Maharashtra",
        "District": "Pune"
    },
    {
        "Location": "Anthurne",
        "Pincode": 413114,
        "State": "Maharashtra",
        "District": "Pune"
    },
    {
        "Location": "Antroli",
        "Pincode": 412212,
        "State": "Maharashtra",
        "District": "Pune"
    },
    {
        "Location": "Aptale",
        "Pincode": 410502,
        "State": "Maharashtra",
        "District": "Pune"
    },
    {
        "Location": "Apti",
        "Pincode": 412206,
        "State": "Maharashtra",
        "District": "Pune"
    },
    {
        "Location": "Armament",
        "Pincode": 411021,
        "State": "Maharashtra",
        "District": "Pune"
    },
    {
        "Location": "Arvi",
        "Pincode": 412401,
        "State": "Maharashtra",
        "District": "Pune"
    },
    {
        "Location": "Arvi(haveli)",
        "Pincode": 412205,
        "State": "Maharashtra",
        "District": "Pune"
    },
    {
        "Location": "Asane",
        "Pincode": 410509,
        "State": "Maharashtra",
        "District": "Pune"
    },
    {
        "Location": "Ashtapur",
        "Pincode": 412207,
        "State": "Maharashtra",
        "District": "Pune"
    },
    {
        "Location": "Audar",
        "Pincode": 412404,
        "State": "Maharashtra",
        "District": "Pune"
    },
    {
        "Location": "Aundh",
        "Pincode": 411007,
        "State": "Maharashtra",
        "District": "Pune"
    },
    {
        "Location": "Aundh Camp",
        "Pincode": 411027,
        "State": "Maharashtra",
        "District": "Pune"
    },
    {
        "Location": "Aundh T.s.",
        "Pincode": 411007,
        "State": "Maharashtra",
        "District": "Pune"
    },
    {
        "Location": "Avasari Bk",
        "Pincode": 412406,
        "State": "Maharashtra",
        "District": "Pune"
    },
    {
        "Location": "Avhat",
        "Pincode": 412402,
        "State": "Maharashtra",
        "District": "Pune"
    },
    {
        "Location": "Avsari Kh",
        "Pincode": 412405,
        "State": "Maharashtra",
        "District": "Pune"
    },
    {
        "Location": "Babhurdi",
        "Pincode": 412204,
        "State": "Maharashtra",
        "District": "Pune"
    },
    {
        "Location": "Bahul",
        "Pincode": 410501,
        "State": "Maharashtra",
        "District": "Pune"
    },
    {
        "Location": "Bajirao Road",
        "Pincode": 411002,
        "State": "Maharashtra",
        "District": "Pune"
    },
    {
        "Location": "Ballalwadi",
        "Pincode": 410502,
        "State": "Maharashtra",
        "District": "Pune"
    },
    {
        "Location": "Baner Gaon",
        "Pincode": 411045,
        "State": "Maharashtra",
        "District": "Pune"
    },
    {
        "Location": "Baner Road",
        "Pincode": 411007,
        "State": "Maharashtra",
        "District": "Pune"
    },
    {
        "Location": "Baramati",
        "Pincode": 413102,
        "State": "Maharashtra",
        "District": "Pune"
    },
    {
        "Location": "Baramati Midc",
        "Pincode": 413133,
        "State": "Maharashtra",
        "District": "Pune"
    },
    {
        "Location": "Baramati West",
        "Pincode": 413102,
        "State": "Maharashtra",
        "District": "Pune"
    },
    {
        "Location": "Barhanpur",
        "Pincode": 413102,
        "State": "Maharashtra",
        "District": "Pune"
    },
    {
        "Location": "Bari Bk",
        "Pincode": 412206,
        "State": "Maharashtra",
        "District": "Pune"
    },
    {
        "Location": "Bavdhan",
        "Pincode": 411021,
        "State": "Maharashtra",
        "District": "Pune"
    },
    {
        "Location": "Bawada",
        "Pincode": 413103,
        "State": "Maharashtra",
        "District": "Pune"
    },
    {
        "Location": "Bazarwadi",
        "Pincode": 412206,
        "State": "Maharashtra",
        "District": "Pune"
    },
    {
        "Location": "Beam Wirelee station",
        "Pincode": 413801,
        "State": "Maharashtra",
        "District": "Pune"
    },
    {
        "Location": "Bebedhol",
        "Pincode": 410506,
        "State": "Maharashtra",
        "District": "Pune"
    },
    {
        "Location": "Belawade",
        "Pincode": 412108,
        "State": "Maharashtra",
        "District": "Pune"
    },
    {
        "Location": "Belawadi",
        "Pincode": 413104,
        "State": "Maharashtra",
        "District": "Pune"
    },
    {
        "Location": "Belha",
        "Pincode": 412410,
        "State": "Maharashtra",
        "District": "Pune"
    },
    {
        "Location": "Belsar",
        "Pincode": 412303,
        "State": "Maharashtra",
        "District": "Pune"
    },
    {
        "Location": "Bet Narayan maharaj",
        "Pincode": 412203,
        "State": "Maharashtra",
        "District": "Pune"
    },
    {
        "Location": "Bhadas",
        "Pincode": 412108,
        "State": "Maharashtra",
        "District": "Pune"
    },
    {
        "Location": "Bhamburde",
        "Pincode": 412209,
        "State": "Maharashtra",
        "District": "Pune"
    },
    {
        "Location": "Bhandgaon",
        "Pincode": 413103,
        "State": "Maharashtra",
        "District": "Pune"
    },
    {
        "Location": "Bhangarwadi",
        "Pincode": 410401,
        "State": "Maharashtra",
        "District": "Pune"
    },
    {
        "Location": "Bhavani Peth",
        "Pincode": 411042,
        "State": "Maharashtra",
        "District": "Pune"
    },
    {
        "Location": "Bhavaninagar",
        "Pincode": 413104,
        "State": "Maharashtra",
        "District": "Pune"
    },
    {
        "Location": "Bhigwan",
        "Pincode": 413130,
        "State": "Maharashtra",
        "District": "Pune"
    },
    {
        "Location": "Bhigwan R s",
        "Pincode": 413105,
        "State": "Maharashtra",
        "District": "Pune"
    },
    {
        "Location": "Bhimashankar",
        "Pincode": 410509,
        "State": "Maharashtra",
        "District": "Pune"
    },
    {
        "Location": "Bhivadi",
        "Pincode": 412301,
        "State": "Maharashtra",
        "District": "Pune"
    },
    {
        "Location": "Bhivari",
        "Pincode": 412301,
        "State": "Maharashtra",
        "District": "Pune"
    },
    {
        "Location": "Bhodani",
        "Pincode": 413103,
        "State": "Maharashtra",
        "District": "Pune"
    },
    {
        "Location": "Bhondave Wadi",
        "Pincode": 412204,
        "State": "Maharashtra",
        "District": "Pune"
    },
    {
        "Location": "Bhongavali",
        "Pincode": 412205,
        "State": "Maharashtra",
        "District": "Pune"
    },
    {
        "Location": "Bhor",
        "Pincode": 412206,
        "State": "Maharashtra",
        "District": "Pune"
    },
    {
        "Location": "Bhorghar",
        "Pincode": 410509,
        "State": "Maharashtra",
        "District": "Pune"
    },
    {
        "Location": "Bhorgiri",
        "Pincode": 412402,
        "State": "Maharashtra",
        "District": "Pune"
    },
    {
        "Location": "Bhosari I.e.",
        "Pincode": 411026,
        "State": "Maharashtra",
        "District": "Pune"
    },
    {
        "Location": "Bhosarigoan",
        "Pincode": 411039,
        "State": "Maharashtra",
        "District": "Pune"
    },
    {
        "Location": "Bhose",
        "Pincode": 410501,
        "State": "Maharashtra",
        "District": "Pune"
    },
    {
        "Location": "Bhoyare",
        "Pincode": 412106,
        "State": "Maharashtra",
        "District": "Pune"
    },
    {
        "Location": "Bhugaon",
        "Pincode": 411042,
        "State": "Maharashtra",
        "District": "Pune"
    },
    {
        "Location": "Bhukum",
        "Pincode": 411042,
        "State": "Maharashtra",
        "District": "Pune"
    },
    {
        "Location": "Bhusari Colony",
        "Pincode": 411038,
        "State": "Maharashtra",
        "District": "Pune"
    },
    {
        "Location": "Bhutonde",
        "Pincode": 412206,
        "State": "Maharashtra",
        "District": "Pune"
    },
    {
        "Location": "Bibi",
        "Pincode": 410513,
        "State": "Maharashtra",
        "District": "Pune"
    },
    {
        "Location": "Bibvewadi",
        "Pincode": 411037,
        "State": "Maharashtra",
        "District": "Pune"
    },
    {
        "Location": "Bijawadi",
        "Pincode": 413106,
        "State": "Maharashtra",
        "District": "Pune"
    },
    {
        "Location": "Bopgaon",
        "Pincode": 412301,
        "State": "Maharashtra",
        "District": "Pune"
    },
    {
        "Location": "Bori",
        "Pincode": 413104,
        "State": "Maharashtra",
        "District": "Pune"
    },
    {
        "Location": "Bori Aindi",
        "Pincode": 412202,
        "State": "Maharashtra",
        "District": "Pune"
    },
    {
        "Location": "Bori Bk",
        "Pincode": 412411,
        "State": "Maharashtra",
        "District": "Pune"
    },
    {
        "Location": "Bori Paradhi",
        "Pincode": 412203,
        "State": "Maharashtra",
        "District": "Pune"
    },
    {
        "Location": "Boribyal",
        "Pincode": 413801,
        "State": "Maharashtra",
        "District": "Pune"
    },
    {
        "Location": "Botanical Garden",
        "Pincode": 411003,
        "State": "Maharashtra",
        "District": "Pune"
    },
    {
        "Location": "Burunjwadi",
        "Pincode": 412208,
        "State": "Maharashtra",
        "District": "Pune"
    },
    {
        "Location": "C D a (o)",
        "Pincode": 411001,
        "State": "Maharashtra",
        "District": "Pune"
    },
    {
        "Location": "C M e",
        "Pincode": 411031,
        "State": "Maharashtra",
        "District": "Pune"
    },
    {
        "Location": "Chakan",
        "Pincode": 410501,
        "State": "Maharashtra",
        "District": "Pune"
    },
    {
        "Location": "Chambli",
        "Pincode": 412301,
        "State": "Maharashtra",
        "District": "Pune"
    },
    {
        "Location": "Chandkhed",
        "Pincode": 410506,
        "State": "Maharashtra",
        "District": "Pune"
    },
    {
        "Location": "Chandoli Bk",
        "Pincode": 410503,
        "State": "Maharashtra",
        "District": "Pune"
    },
    {
        "Location": "Charoli Bk",
        "Pincode": 412105,
        "State": "Maharashtra",
        "District": "Pune"
    },
    {
        "Location": "Chas",
        "Pincode": 410513,
        "State": "Maharashtra",
        "District": "Pune"
    },
    {
        "Location": "Chavand",
        "Pincode": 410502,
        "State": "Maharashtra",
        "District": "Pune"
    },
    {
        "Location": "Chikhalgaon",
        "Pincode": 412206,
        "State": "Maharashtra",
        "District": "Pune"
    },
    {
        "Location": "Chikhlee",
        "Pincode": 412114,
        "State": "Maharashtra",
        "District": "Pune"
    },
    {
        "Location": "Chilewadi",
        "Pincode": 412409,
        "State": "Maharashtra",
        "District": "Pune"
    },
    {
        "Location": "Chimbli",
        "Pincode": 412105,
        "State": "Maharashtra",
        "District": "Pune"
    },
    {
        "Location": "Chinchani Camp",
        "Pincode": 412211,
        "State": "Maharashtra",
        "District": "Pune"
    },
    {
        "Location": "Chincholi",
        "Pincode": 412218,
        "State": "Maharashtra",
        "District": "Pune"
    },
    {
        "Location": "Chinchoshi",
        "Pincode": 410505,
        "State": "Maharashtra",
        "District": "Pune"
    },
    {
        "Location": "Chinchwad East",
        "Pincode": 411019,
        "State": "Maharashtra",
        "District": "Pune"
    },
    {
        "Location": "Chinchwadga0n",
        "Pincode": 411019,
        "State": "Maharashtra",
        "District": "Pune"
    },
    {
        "Location": "Cod Dehu road",
        "Pincode": 412101,
        "State": "Maharashtra",
        "District": "Pune"
    },
    {
        "Location": "Congress House road",
        "Pincode": 411005,
        "State": "Maharashtra",
        "District": "Pune"
    },
    {
        "Location": "Dahitane",
        "Pincode": 412207,
        "State": "Maharashtra",
        "District": "Pune"
    },
    {
        "Location": "Dalaj",
        "Pincode": 413132,
        "State": "Maharashtra",
        "District": "Pune"
    },
    {
        "Location": "Dapode",
        "Pincode": 412213,
        "State": "Maharashtra",
        "District": "Pune"
    },
    {
        "Location": "Dapodi",
        "Pincode": 411001,
        "State": "Maharashtra",
        "District": "Pune"
    },
    {
        "Location": "Dapodi Bazar",
        "Pincode": 411012,
        "State": "Maharashtra",
        "District": "Pune"
    },
    {
        "Location": "Daund",
        "Pincode": 413801,
        "State": "Maharashtra",
        "District": "Pune"
    },
    {
        "Location": "Daund Bazar",
        "Pincode": 413801,
        "State": "Maharashtra",
        "District": "Pune"
    },
    {
        "Location": "Daundaj",
        "Pincode": 412305,
        "State": "Maharashtra",
        "District": "Pune"
    },
    {
        "Location": "Dawadi",
        "Pincode": 410505,
        "State": "Maharashtra",
        "District": "Pune"
    },
    {
        "Location": "Dawanewadi",
        "Pincode": 412311,
        "State": "Maharashtra",
        "District": "Pune"
    },
    {
        "Location": "Deccan Gymkhana",
        "Pincode": 411004,
        "State": "Maharashtra",
        "District": "Pune"
    },
    {
        "Location": "Degaon",
        "Pincode": 412213,
        "State": "Maharashtra",
        "District": "Pune"
    },
    {
        "Location": "Dehane",
        "Pincode": 412402,
        "State": "Maharashtra",
        "District": "Pune"
    },
    {
        "Location": "Dehu",
        "Pincode": 412109,
        "State": "Maharashtra",
        "District": "Pune"
    },
    {
        "Location": "Dehu Road cantt",
        "Pincode": 412101,
        "State": "Maharashtra",
        "District": "Pune"
    },
    {
        "Location": "Delwadi",
        "Pincode": 412214,
        "State": "Maharashtra",
        "District": "Pune"
    },
    {
        "Location": "Deulgaonraja",
        "Pincode": 413801,
        "State": "Maharashtra",
        "District": "Pune"
    },
    {
        "Location": "Devale",
        "Pincode": 410502,
        "State": "Maharashtra",
        "District": "Pune"
    },
    {
        "Location": "Dhakale",
        "Pincode": 413110,
        "State": "Maharashtra",
        "District": "Pune"
    },
    {
        "Location": "Dhamane",
        "Pincode": 410506,
        "State": "Maharashtra",
        "District": "Pune"
    },
    {
        "Location": "Dhamani",
        "Pincode": 410508,
        "State": "Maharashtra",
        "District": "Pune"
    },
    {
        "Location": "Dhamari",
        "Pincode": 412403,
        "State": "Maharashtra",
        "District": "Pune"
    },
    {
        "Location": "Dhangavadi",
        "Pincode": 412205,
        "State": "Maharashtra",
        "District": "Pune"
    },
    {
        "Location": "Dhankawadi",
        "Pincode": 411043,
        "State": "Maharashtra",
        "District": "Pune"
    },
    {
        "Location": "Dhanore",
        "Pincode": 412208,
        "State": "Maharashtra",
        "District": "Pune"
    },
    {
        "Location": "Dhanori",
        "Pincode": 411015,
        "State": "Maharashtra",
        "District": "Pune"
    },
    {
        "Location": "Dhayari",
        "Pincode": 411041,
        "State": "Maharashtra",
        "District": "Pune"
    },
    {
        "Location": "Dhekalwadi",
        "Pincode": 413104,
        "State": "Maharashtra",
        "District": "Pune"
    },
    {
        "Location": "Dholwad",
        "Pincode": 412409,
        "State": "Maharashtra",
        "District": "Pune"
    },
    {
        "Location": "Dighi Camp",
        "Pincode": 411015,
        "State": "Maharashtra",
        "District": "Pune"
    },
    {
        "Location": "Dimbhe Colony",
        "Pincode": 410509,
        "State": "Maharashtra",
        "District": "Pune"
    },
    {
        "Location": "Dingore",
        "Pincode": 412409,
        "State": "Maharashtra",
        "District": "Pune"
    },
    {
        "Location": "Diwa",
        "Pincode": 412301,
        "State": "Maharashtra",
        "District": "Pune"
    },
    {
        "Location": "Donda",
        "Pincode": 410505,
        "State": "Maharashtra",
        "District": "Pune"
    },
    {
        "Location": "Donje",
        "Pincode": 411042,
        "State": "Maharashtra",
        "District": "Pune"
    },
    {
        "Location": "Dorlewadi",
        "Pincode": 413102,
        "State": "Maharashtra",
        "District": "Pune"
    },
    {
        "Location": "Dr.B.a. chowk",
        "Pincode": 411001,
        "State": "Maharashtra",
        "District": "Pune"
    },
    {
        "Location": "Dukirkline",
        "Pincode": 411014,
        "State": "Maharashtra",
        "District": "Pune"
    },
    {
        "Location": "East Khadki",
        "Pincode": 411003,
        "State": "Maharashtra",
        "District": "Pune"
    },
    {
        "Location": "Eklahare",
        "Pincode": 412402,
        "State": "Maharashtra",
        "District": "Pune"
    },
    {
        "Location": "Ex. serviceman colony",
        "Pincode": 411038,
        "State": "Maharashtra",
        "District": "Pune"
    },
    {
        "Location": "Film Institute",
        "Pincode": 411004,
        "State": "Maharashtra",
        "District": "Pune"
    },
    {
        "Location": "Fulgaon",
        "Pincode": 412216,
        "State": "Maharashtra",
        "District": "Pune"
    },
    {
        "Location": "Gadad",
        "Pincode": 410501,
        "State": "Maharashtra",
        "District": "Pune"
    },
    {
        "Location": "Galandwadi",
        "Pincode": 412203,
        "State": "Maharashtra",
        "District": "Pune"
    },
    {
        "Location": "Ganegaon Dumala",
        "Pincode": 412211,
        "State": "Maharashtra",
        "District": "Pune"
    },
    {
        "Location": "Ganegaon Khalasa",
        "Pincode": 412209,
        "State": "Maharashtra",
        "District": "Pune"
    },
    {
        "Location": "Ganeshkhind",
        "Pincode": 411007,
        "State": "Maharashtra",
        "District": "Pune"
    },
    {
        "Location": "Gangapur Kh",
        "Pincode": 410516,
        "State": "Maharashtra",
        "District": "Pune"
    },
    {
        "Location": "Garade",
        "Pincode": 412301,
        "State": "Maharashtra",
        "District": "Pune"
    },
    {
        "Location": "Gawadewadi",
        "Pincode": 412405,
        "State": "Maharashtra",
        "District": "Pune"
    },
    {
        "Location": "Ghodegaon",
        "Pincode": 412408,
        "State": "Maharashtra",
        "District": "Pune"
    },
    {
        "Location": "Ghorpade Peth",
        "Pincode": 411042,
        "State": "Maharashtra",
        "District": "Pune"
    },
    {
        "Location": "Ghorpuri Bazar",
        "Pincode": 411001,
        "State": "Maharashtra",
        "District": "Pune"
    },
    {
        "Location": "Ghotavade",
        "Pincode": 411042,
        "State": "Maharashtra",
        "District": "Pune"
    },
    {
        "Location": "Ghotawadi",
        "Pincode": 410505,
        "State": "Maharashtra",
        "District": "Pune"
    },
    {
        "Location": "Ghotondi",
        "Pincode": 413120,
        "State": "Maharashtra",
        "District": "Pune"
    },
    {
        "Location": "Girawali",
        "Pincode": 412408,
        "State": "Maharashtra",
        "District": "Pune"
    },
    {
        "Location": "Girim",
        "Pincode": 413801,
        "State": "Maharashtra",
        "District": "Pune"
    },
    {
        "Location": "Godre",
        "Pincode": 410502,
        "State": "Maharashtra",
        "District": "Pune"
    },
    {
        "Location": "Gogalwadi(e)",
        "Pincode": 412205,
        "State": "Maharashtra",
        "District": "Pune"
    },
    {
        "Location": "Gohe Bk",
        "Pincode": 410509,
        "State": "Maharashtra",
        "District": "Pune"
    },
    {
        "Location": "Gokhalenagar",
        "Pincode": 411016,
        "State": "Maharashtra",
        "District": "Pune"
    },
    {
        "Location": "Golegaon",
        "Pincode": 412210,
        "State": "Maharashtra",
        "District": "Pune"
    },
    {
        "Location": "Gopalwadi",
        "Pincode": 413801,
        "State": "Maharashtra",
        "District": "Pune"
    },
    {
        "Location": "Govt. polytechnic",
        "Pincode": 411016,
        "State": "Maharashtra",
        "District": "Pune"
    },
    {
        "Location": "Gulani",
        "Pincode": 410505,
        "State": "Maharashtra",
        "District": "Pune"
    },
    {
        "Location": "Gulunche",
        "Pincode": 412102,
        "State": "Maharashtra",
        "District": "Pune"
    },
    {
        "Location": "Gunawadi",
        "Pincode": 413102,
        "State": "Maharashtra",
        "District": "Pune"
    },
    {
        "Location": "Gunjalwadi",
        "Pincode": 412401,
        "State": "Maharashtra",
        "District": "Pune"
    },
    {
        "Location": "Gunjawane",
        "Pincode": 412213,
        "State": "Maharashtra",
        "District": "Pune"
    },
    {
        "Location": "Gurholi",
        "Pincode": 412104,
        "State": "Maharashtra",
        "District": "Pune"
    },
    {
        "Location": "Guruwar Peth",
        "Pincode": 411042,
        "State": "Maharashtra",
        "District": "Pune"
    },
    {
        "Location": "H.E. factory",
        "Pincode": 411003,
        "State": "Maharashtra",
        "District": "Pune"
    },
    {
        "Location": "Hadapsar",
        "Pincode": 411028,
        "State": "Maharashtra",
        "District": "Pune"
    },
    {
        "Location": "Hadpsar I.e.",
        "Pincode": 411013,
        "State": "Maharashtra",
        "District": "Pune"
    },
    {
        "Location": "Hargude",
        "Pincode": 412311,
        "State": "Maharashtra",
        "District": "Pune"
    },
    {
        "Location": "Harnas",
        "Pincode": 412206,
        "State": "Maharashtra",
        "District": "Pune"
    },
    {
        "Location": "Harni",
        "Pincode": 412305,
        "State": "Maharashtra",
        "District": "Pune"
    },
    {
        "Location": "Hatve Bk",
        "Pincode": 412213,
        "State": "Maharashtra",
        "District": "Pune"
    },
    {
        "Location": "Hingangaon",
        "Pincode": 413106,
        "State": "Maharashtra",
        "District": "Pune"
    },
    {
        "Location": "Hingniberdi",
        "Pincode": 413801,
        "State": "Maharashtra",
        "District": "Pune"
    },
    {
        "Location": "Hirdoshi",
        "Pincode": 412206,
        "State": "Maharashtra",
        "District": "Pune"
    },
    {
        "Location": "Hivare",
        "Pincode": 412208,
        "State": "Maharashtra",
        "District": "Pune"
    },
    {
        "Location": "Hivare Bk",
        "Pincode": 410504,
        "State": "Maharashtra",
        "District": "Pune"
    },
    {
        "Location": "Hivare Kh",
        "Pincode": 412409,
        "State": "Maharashtra",
        "District": "Pune"
    },
    {
        "Location": "Hol",
        "Pincode": 412306,
        "State": "Maharashtra",
        "District": "Pune"
    },
    {
        "Location": "I.A.t. [ girinagar]",
        "Pincode": 411025,
        "State": "Maharashtra",
        "District": "Pune"
    },
    {
        "Location": "Iaf Station",
        "Pincode": 411032,
        "State": "Maharashtra",
        "District": "Pune"
    },
    {
        "Location": "Inamgaon",
        "Pincode": 412210,
        "State": "Maharashtra",
        "District": "Pune"
    },
    {
        "Location": "Indapur",
        "Pincode": 413106,
        "State": "Maharashtra",
        "District": "Pune"
    },
    {
        "Location": "Indapur Bazar",
        "Pincode": 413106,
        "State": "Maharashtra",
        "District": "Pune"
    },
    {
        "Location": "Indrayani Darshan dehu road",
        "Pincode": 412101,
        "State": "Maharashtra",
        "District": "Pune"
    },
    {
        "Location": "Induri",
        "Pincode": 410507,
        "State": "Maharashtra",
        "District": "Pune"
    },
    {
        "Location": "Infotech park (hinjawadi)",
        "Pincode": 411057,
        "State": "Maharashtra",
        "District": "Pune"
    },
    {
        "Location": "Inglun",
        "Pincode": 412106,
        "State": "Maharashtra",
        "District": "Pune"
    },
    {
        "Location": "Ins Shivaji lonavale",
        "Pincode": 410402,
        "State": "Maharashtra",
        "District": "Pune"
    },
    {
        "Location": "Jalgaon Kadepathar",
        "Pincode": 413102,
        "State": "Maharashtra",
        "District": "Pune"
    },
    {
        "Location": "Jambhali Bk",
        "Pincode": 412213,
        "State": "Maharashtra",
        "District": "Pune"
    },
    {
        "Location": "Jambhe",
        "Pincode": 411019,
        "State": "Maharashtra",
        "District": "Pune"
    },
    {
        "Location": "Jambhori",
        "Pincode": 410509,
        "State": "Maharashtra",
        "District": "Pune"
    },
    {
        "Location": "Jambhut",
        "Pincode": 410504,
        "State": "Maharashtra",
        "District": "Pune"
    },
    {
        "Location": "Jategaon Bk",
        "Pincode": 412208,
        "State": "Maharashtra",
        "District": "Pune"
    },
    {
        "Location": "Javalarjun",
        "Pincode": 412303,
        "State": "Maharashtra",
        "District": "Pune"
    },
    {
        "Location": "Jejuri",
        "Pincode": 412303,
        "State": "Maharashtra",
        "District": "Pune"
    },
    {
        "Location": "Jeur",
        "Pincode": 412305,
        "State": "Maharashtra",
        "District": "Pune"
    },
    {
        "Location": "Jhargadwadi",
        "Pincode": 413102,
        "State": "Maharashtra",
        "District": "Pune"
    },
    {
        "Location": "Jogwadi",
        "Pincode": 412206,
        "State": "Maharashtra",
        "District": "Pune"
    },
    {
        "Location": "Junnar",
        "Pincode": 410502,
        "State": "Maharashtra",
        "District": "Pune"
    },
    {
        "Location": "Kadadhe",
        "Pincode": 410513,
        "State": "Maharashtra",
        "District": "Pune"
    },
    {
        "Location": "Kadam Wak wasti",
        "Pincode": 412201,
        "State": "Maharashtra",
        "District": "Pune"
    },
    {
        "Location": "Kadethan",
        "Pincode": 412215,
        "State": "Maharashtra",
        "District": "Pune"
    },
    {
        "Location": "Kadus",
        "Pincode": 412404,
        "State": "Maharashtra",
        "District": "Pune"
    },
    {
        "Location": "Kadve",
        "Pincode": 412107,
        "State": "Maharashtra",
        "District": "Pune"
    },
    {
        "Location": "Kaivalyadham",
        "Pincode": 410403,
        "State": "Maharashtra",
        "District": "Pune"
    },
    {
        "Location": "Kalamb",
        "Pincode": 413114,
        "State": "Maharashtra",
        "District": "Pune"
    },
    {
        "Location": "Kalas",
        "Pincode": 413105,
        "State": "Maharashtra",
        "District": "Pune"
    },
    {
        "Location": "Kalashi",
        "Pincode": 413106,
        "State": "Maharashtra",
        "District": "Pune"
    },
    {
        "Location": "Kaldari",
        "Pincode": 412311,
        "State": "Maharashtra",
        "District": "Pune"
    },
    {
        "Location": "Kalewadi",
        "Pincode": 411017,
        "State": "Maharashtra",
        "District": "Pune"
    },
    {
        "Location": "Kalthan No 1",
        "Pincode": 413106,
        "State": "Maharashtra",
        "District": "Pune"
    },
    {
        "Location": "Kalus",
        "Pincode": 410501,
        "State": "Maharashtra",
        "District": "Pune"
    },
    {
        "Location": "Kalyan",
        "Pincode": 412205,
        "State": "Maharashtra",
        "District": "Pune"
    },
    {
        "Location": "Kambaleshwar",
        "Pincode": 413110,
        "State": "Maharashtra",
        "District": "Pune"
    },
    {
        "Location": "Kambegi",
        "Pincode": 412107,
        "State": "Maharashtra",
        "District": "Pune"
    },
    {
        "Location": "Kamdhenunagar",
        "Pincode": 412202,
        "State": "Maharashtra",
        "District": "Pune"
    },
    {
        "Location": "Kamshet",
        "Pincode": 410405,
        "State": "Maharashtra",
        "District": "Pune"
    },
    {
        "Location": "Kamthadi",
        "Pincode": 412213,
        "State": "Maharashtra",
        "District": "Pune"
    },
    {
        "Location": "Kanakwadi",
        "Pincode": 412206,
        "State": "Maharashtra",
        "District": "Pune"
    },
    {
        "Location": "Kandali",
        "Pincode": 412412,
        "State": "Maharashtra",
        "District": "Pune"
    },
    {
        "Location": "Kangaon",
        "Pincode": 412219,
        "State": "Maharashtra",
        "District": "Pune"
    },
    {
        "Location": "Kanhe",
        "Pincode": 412106,
        "State": "Maharashtra",
        "District": "Pune"
    },
    {
        "Location": "Kanhersar",
        "Pincode": 410505,
        "State": "Maharashtra",
        "District": "Pune"
    },
    {
        "Location": "Kanhur",
        "Pincode": 412218,
        "State": "Maharashtra",
        "District": "Pune"
    },
    {
        "Location": "Kapad Ganj",
        "Pincode": 411002,
        "State": "Maharashtra",
        "District": "Pune"
    },
    {
        "Location": "Kapurhol",
        "Pincode": 412205,
        "State": "Maharashtra",
        "District": "Pune"
    },
    {
        "Location": "Karandi",
        "Pincode": 412208,
        "State": "Maharashtra",
        "District": "Pune"
    },
    {
        "Location": "Karandi Bk",
        "Pincode": 412206,
        "State": "Maharashtra",
        "District": "Pune"
    },
    {
        "Location": "Karandi Khedebare",
        "Pincode": 412213,
        "State": "Maharashtra",
        "District": "Pune"
    },
    {
        "Location": "Karanjawane",
        "Pincode": 412209,
        "State": "Maharashtra",
        "District": "Pune"
    },
    {
        "Location": "Karanje",
        "Pincode": 412306,
        "State": "Maharashtra",
        "District": "Pune"
    },
    {
        "Location": "Karanjgaon",
        "Pincode": 410405,
        "State": "Maharashtra",
        "District": "Pune"
    },
    {
        "Location": "Karawaghaj",
        "Pincode": 413102,
        "State": "Maharashtra",
        "District": "Pune"
    },
    {
        "Location": "Karda",
        "Pincode": 412210,
        "State": "Maharashtra",
        "District": "Pune"
    },
    {
        "Location": "Karegaon",
        "Pincode": 412220,
        "State": "Maharashtra",
        "District": "Pune"
    },
    {
        "Location": "Karhati",
        "Pincode": 412204,
        "State": "Maharashtra",
        "District": "Pune"
    },
    {
        "Location": "Kari",
        "Pincode": 412206,
        "State": "Maharashtra",
        "District": "Pune"
    },
    {
        "Location": "Karkhel",
        "Pincode": 413102,
        "State": "Maharashtra",
        "District": "Pune"
    },
    {
        "Location": "Karla",
        "Pincode": 410405,
        "State": "Maharashtra",
        "District": "Pune"
    },
    {
        "Location": "Karnawad",
        "Pincode": 412206,
        "State": "Maharashtra",
        "District": "Pune"
    },
    {
        "Location": "Karunj",
        "Pincode": 410405,
        "State": "Maharashtra",
        "District": "Pune"
    },
    {
        "Location": "Karvenagar",
        "Pincode": 411052,
        "State": "Maharashtra",
        "District": "Pune"
    },
    {
        "Location": "Kasarsai",
        "Pincode": 410506,
        "State": "Maharashtra",
        "District": "Pune"
    },
    {
        "Location": "Kasarwadi",
        "Pincode": 411034,
        "State": "Maharashtra",
        "District": "Pune"
    },
    {
        "Location": "Kasba Peth",
        "Pincode": 411011,
        "State": "Maharashtra",
        "District": "Pune"
    },
    {
        "Location": "Kashedi",
        "Pincode": 412107,
        "State": "Maharashtra",
        "District": "Pune"
    },
    {
        "Location": "Kashing",
        "Pincode": 412108,
        "State": "Maharashtra",
        "District": "Pune"
    },
    {
        "Location": "Kasurdi",
        "Pincode": 412214,
        "State": "Maharashtra",
        "District": "Pune"
    },
    {
        "Location": "Katfal",
        "Pincode": 413133,
        "State": "Maharashtra",
        "District": "Pune"
    },
    {
        "Location": "Kati",
        "Pincode": 413120,
        "State": "Maharashtra",
        "District": "Pune"
    },
    {
        "Location": "Katraj",
        "Pincode": 411046,
        "State": "Maharashtra",
        "District": "Pune"
    },
    {
        "Location": "Katyachiwadi",
        "Pincode": 413104,
        "State": "Maharashtra",
        "District": "Pune"
    },
    {
        "Location": "Kawtha",
        "Pincode": 412218,
        "State": "Maharashtra",
        "District": "Pune"
    },
    {
        "Location": "Kazad",
        "Pincode": 413104,
        "State": "Maharashtra",
        "District": "Pune"
    },
    {
        "Location": "Kedgaon",
        "Pincode": 412203,
        "State": "Maharashtra",
        "District": "Pune"
    },
    {
        "Location": "Kelawade",
        "Pincode": 412213,
        "State": "Maharashtra",
        "District": "Pune"
    },
    {
        "Location": "Kendur",
        "Pincode": 412403,
        "State": "Maharashtra",
        "District": "Pune"
    },
    {
        "Location": "Kenjal",
        "Pincode": 412205,
        "State": "Maharashtra",
        "District": "Pune"
    },
    {
        "Location": "Kesnand",
        "Pincode": 412207,
        "State": "Maharashtra",
        "District": "Pune"
    },
    {
        "Location": "Ketkavale",
        "Pincode": 412205,
        "State": "Maharashtra",
        "District": "Pune"
    },
    {
        "Location": "Khadaki",
        "Pincode": 413130,
        "State": "Maharashtra",
        "District": "Pune"
    },
    {
        "Location": "Khadakwasla R.s.",
        "Pincode": 411024,
        "State": "Maharashtra",
        "District": "Pune"
    },
    {
        "Location": "Khadki",
        "Pincode": 411003,
        "State": "Maharashtra",
        "District": "Pune"
    },
    {
        "Location": "Khadki Arsenel",
        "Pincode": 411003,
        "State": "Maharashtra",
        "District": "Pune"
    },
    {
        "Location": "Khadki Bazar",
        "Pincode": 411003,
        "State": "Maharashtra",
        "District": "Pune"
    },
    {
        "Location": "Khadkumbe(exptl)",
        "Pincode": 410502,
        "State": "Maharashtra",
        "District": "Pune"
    },
    {
        "Location": "Khalad",
        "Pincode": 412301,
        "State": "Maharashtra",
        "District": "Pune"
    },
    {
        "Location": "Khamboli",
        "Pincode": 411042,
        "State": "Maharashtra",
        "District": "Pune"
    },
    {
        "Location": "Khamgaon",
        "Pincode": 410502,
        "State": "Maharashtra",
        "District": "Pune"
    },
    {
        "Location": "Khamgaon Bk",
        "Pincode": 412214,
        "State": "Maharashtra",
        "District": "Pune"
    },
    {
        "Location": "Khamundi",
        "Pincode": 410504,
        "State": "Maharashtra",
        "District": "Pune"
    },
    {
        "Location": "Khanapur",
        "Pincode": 410502,
        "State": "Maharashtra",
        "District": "Pune"
    },
    {
        "Location": "Khanapur Haveli",
        "Pincode": 411042,
        "State": "Maharashtra",
        "District": "Pune"
    },
    {
        "Location": "Khandaj",
        "Pincode": 413116,
        "State": "Maharashtra",
        "District": "Pune"
    },
    {
        "Location": "Khandala",
        "Pincode": 410301,
        "State": "Maharashtra",
        "District": "Pune"
    },
    {
        "Location": "Khandi",
        "Pincode": 412106,
        "State": "Maharashtra",
        "District": "Pune"
    },
    {
        "Location": "Khandobachi Wadi",
        "Pincode": 412102,
        "State": "Maharashtra",
        "District": "Pune"
    },
    {
        "Location": "Khangaon",
        "Pincode": 410502,
        "State": "Maharashtra",
        "District": "Pune"
    },
    {
        "Location": "Khanote",
        "Pincode": 413105,
        "State": "Maharashtra",
        "District": "Pune"
    },
    {
        "Location": "Kharoshi",
        "Pincode": 412402,
        "State": "Maharashtra",
        "District": "Pune"
    },
    {
        "Location": "Khechare",
        "Pincode": 412108,
        "State": "Maharashtra",
        "District": "Pune"
    },
    {
        "Location": "Khed Shivapur",
        "Pincode": 412205,
        "State": "Maharashtra",
        "District": "Pune"
    },
    {
        "Location": "Khed Shivapur baug",
        "Pincode": 412205,
        "State": "Maharashtra",
        "District": "Pune"
    },
    {
        "Location": "Khodad",
        "Pincode": 410504,
        "State": "Maharashtra",
        "District": "Pune"
    },
    {
        "Location": "Khondhwa Kh",
        "Pincode": 411048,
        "State": "Maharashtra",
        "District": "Pune"
    },
    {
        "Location": "Khopodi",
        "Pincode": 412203,
        "State": "Maharashtra",
        "District": "Pune"
    },
    {
        "Location": "Khor",
        "Pincode": 412203,
        "State": "Maharashtra",
        "District": "Pune"
    },
    {
        "Location": "Khorochi",
        "Pincode": 413114,
        "State": "Maharashtra",
        "District": "Pune"
    },
    {
        "Location": "Khubi",
        "Pincode": 412409,
        "State": "Maharashtra",
        "District": "Pune"
    },
    {
        "Location": "Khutbhav",
        "Pincode": 412203,
        "State": "Maharashtra",
        "District": "Pune"
    },
    {
        "Location": "Kikvi",
        "Pincode": 412205,
        "State": "Maharashtra",
        "District": "Pune"
    },
    {
        "Location": "Kiwale",
        "Pincode": 410505,
        "State": "Maharashtra",
        "District": "Pune"
    },
    {
        "Location": "Kodapur",
        "Pincode": 412212,
        "State": "Maharashtra",
        "District": "Pune"
    },
    {
        "Location": "Kodit",
        "Pincode": 412301,
        "State": "Maharashtra",
        "District": "Pune"
    },
    {
        "Location": "Kohinde Bk",
        "Pincode": 412404,
        "State": "Maharashtra",
        "District": "Pune"
    },
    {
        "Location": "Kolawade",
        "Pincode": 411042,
        "State": "Maharashtra",
        "District": "Pune"
    },
    {
        "Location": "Kolvadi",
        "Pincode": 412412,
        "State": "Maharashtra",
        "District": "Pune"
    },
    {
        "Location": "Kolvihire",
        "Pincode": 412303,
        "State": "Maharashtra",
        "District": "Pune"
    },
    {
        "Location": "Kolwadi",
        "Pincode": 412207,
        "State": "Maharashtra",
        "District": "Pune"
    },
    {
        "Location": "Kolwan",
        "Pincode": 412108,
        "State": "Maharashtra",
        "District": "Pune"
    },
    {
        "Location": "Kondhanpur",
        "Pincode": 412205,
        "State": "Maharashtra",
        "District": "Pune"
    },
    {
        "Location": "Kondhapuri",
        "Pincode": 412209,
        "State": "Maharashtra",
        "District": "Pune"
    },
    {
        "Location": "Kondhawale",
        "Pincode": 412108,
        "State": "Maharashtra",
        "District": "Pune"
    },
    {
        "Location": "Kondhwa Bk",
        "Pincode": 411048,
        "State": "Maharashtra",
        "District": "Pune"
    },
    {
        "Location": "Kondhwa Lh",
        "Pincode": 411048,
        "State": "Maharashtra",
        "District": "Pune"
    },
    {
        "Location": "Kondhwal",
        "Pincode": 410509,
        "State": "Maharashtra",
        "District": "Pune"
    },
    {
        "Location": "Koregaon Bhima",
        "Pincode": 412216,
        "State": "Maharashtra",
        "District": "Pune"
    },
    {
        "Location": "Koregaon Bhivar",
        "Pincode": 412207,
        "State": "Maharashtra",
        "District": "Pune"
    },
    {
        "Location": "Koregaon Mul",
        "Pincode": 412202,
        "State": "Maharashtra",
        "District": "Pune"
    },
    {
        "Location": "Korhale Bk",
        "Pincode": 412103,
        "State": "Maharashtra",
        "District": "Pune"
    },
    {
        "Location": "Korhale Kh",
        "Pincode": 412103,
        "State": "Maharashtra",
        "District": "Pune"
    },
    {
        "Location": "Kothale",
        "Pincode": 412303,
        "State": "Maharashtra",
        "District": "Pune"
    },
    {
        "Location": "Kothrud",
        "Pincode": 411038,
        "State": "Maharashtra",
        "District": "Pune"
    },
    {
        "Location": "Koyali",
        "Pincode": 410501,
        "State": "Maharashtra",
        "District": "Pune"
    },
    {
        "Location": "Kude Bk",
        "Pincode": 410505,
        "State": "Maharashtra",
        "District": "Pune"
    },
    {
        "Location": "Kudje",
        "Pincode": 411023,
        "State": "Maharashtra",
        "District": "Pune"
    },
    {
        "Location": "Kule",
        "Pincode": 412108,
        "State": "Maharashtra",
        "District": "Pune"
    },
    {
        "Location": "Kunjirwadi",
        "Pincode": 412201,
        "State": "Maharashtra",
        "District": "Pune"
    },
    {
        "Location": "Kuran",
        "Pincode": 410511,
        "State": "Maharashtra",
        "District": "Pune"
    },
    {
        "Location": "Kuran Bk",
        "Pincode": 412107,
        "State": "Maharashtra",
        "District": "Pune"
    },
    {
        "Location": "Kuravali",
        "Pincode": 413104,
        "State": "Maharashtra",
        "District": "Pune"
    },
    {
        "Location": "Kurkumbh",
        "Pincode": 413802,
        "State": "Maharashtra",
        "District": "Pune"
    },
    {
        "Location": "Kurkundi",
        "Pincode": 410505,
        "State": "Maharashtra",
        "District": "Pune"
    },
    {
        "Location": "Kuruli",
        "Pincode": 410501,
        "State": "Maharashtra",
        "District": "Pune"
    },
    {
        "Location": "Kurungwadi",
        "Pincode": 412213,
        "State": "Maharashtra",
        "District": "Pune"
    },
    {
        "Location": "Kurwande",
        "Pincode": 410402,
        "State": "Maharashtra",
        "District": "Pune"
    },
    {
        "Location": "Kurwandi",
        "Pincode": 410512,
        "State": "Maharashtra",
        "District": "Pune"
    },
    {
        "Location": "Kusgaon",
        "Pincode": 412219,
        "State": "Maharashtra",
        "District": "Pune"
    },
    {
        "Location": "Kusgaon Bk",
        "Pincode": 410401,
        "State": "Maharashtra",
        "District": "Pune"
    },
    {
        "Location": "Kushire Bk",
        "Pincode": 410509,
        "State": "Maharashtra",
        "District": "Pune"
    },
    {
        "Location": "Kusur",
        "Pincode": 410502,
        "State": "Maharashtra",
        "District": "Pune"
    },
    {
        "Location": "L.K. path",
        "Pincode": 411003,
        "State": "Maharashtra",
        "District": "Pune"
    },
    {
        "Location": "Lakhangaon",
        "Pincode": 412406,
        "State": "Maharashtra",
        "District": "Pune"
    },
    {
        "Location": "Lakhewadi",
        "Pincode": 413103,
        "State": "Maharashtra",
        "District": "Pune"
    },
    {
        "Location": "Landewadi",
        "Pincode": 410503,
        "State": "Maharashtra",
        "District": "Pune"
    },
    {
        "Location": "Late",
        "Pincode": 412103,
        "State": "Maharashtra",
        "District": "Pune"
    },
    {
        "Location": "Lavale",
        "Pincode": 411042,
        "State": "Maharashtra",
        "District": "Pune"
    },
    {
        "Location": "Lohogaon",
        "Pincode": 411047,
        "State": "Maharashtra",
        "District": "Pune"
    },
    {
        "Location": "Lokmanyanagar",
        "Pincode": 411030,
        "State": "Maharashtra",
        "District": "Pune"
    },
    {
        "Location": "Lonavala",
        "Pincode": 410401,
        "State": "Maharashtra",
        "District": "Pune"
    },
    {
        "Location": "Lonavala Bazar",
        "Pincode": 410401,
        "State": "Maharashtra",
        "District": "Pune"
    },
    {
        "Location": "Loni Bhapkar",
        "Pincode": 413110,
        "State": "Maharashtra",
        "District": "Pune"
    },
    {
        "Location": "Loni Deokar",
        "Pincode": 413132,
        "State": "Maharashtra",
        "District": "Pune"
    },
    {
        "Location": "Loni Dhamani",
        "Pincode": 410510,
        "State": "Maharashtra",
        "District": "Pune"
    },
    {
        "Location": "Loni Kalbhor",
        "Pincode": 412201,
        "State": "Maharashtra",
        "District": "Pune"
    },
    {
        "Location": "Lonikand",
        "Pincode": 412216,
        "State": "Maharashtra",
        "District": "Pune"
    },
    {
        "Location": "M.Fule market",
        "Pincode": 411002,
        "State": "Maharashtra",
        "District": "Pune"
    },
    {
        "Location": "M.Phulenagar",
        "Pincode": 411019,
        "State": "Maharashtra",
        "District": "Pune"
    },
    {
        "Location": "Madanwadi",
        "Pincode": 413130,
        "State": "Maharashtra",
        "District": "Pune"
    },
    {
        "Location": "Madh",
        "Pincode": 412409,
        "State": "Maharashtra",
        "District": "Pune"
    },
    {
        "Location": "Madhukarnagar Patas",
        "Pincode": 412219,
        "State": "Maharashtra",
        "District": "Pune"
    },
    {
        "Location": "Mahalunge Ingale",
        "Pincode": 410501,
        "State": "Maharashtra",
        "District": "Pune"
    },
    {
        "Location": "Mahalunge Padwal",
        "Pincode": 410515,
        "State": "Maharashtra",
        "District": "Pune"
    },
    {
        "Location": "Mahude Bk",
        "Pincode": 412206,
        "State": "Maharashtra",
        "District": "Pune"
    },
    {
        "Location": "Mahur",
        "Pincode": 412311,
        "State": "Maharashtra",
        "District": "Pune"
    },
    {
        "Location": "Malad",
        "Pincode": 413130,
        "State": "Maharashtra",
        "District": "Pune"
    },
    {
        "Location": "Malawali",
        "Pincode": 410405,
        "State": "Maharashtra",
        "District": "Pune"
    },
    {
        "Location": "Male",
        "Pincode": 412108,
        "State": "Maharashtra",
        "District": "Pune"
    },
    {
        "Location": "Malegaon Bk",
        "Pincode": 413115,
        "State": "Maharashtra",
        "District": "Pune"
    },
    {
        "Location": "Malegaon Irr colony",
        "Pincode": 413115,
        "State": "Maharashtra",
        "District": "Pune"
    },
    {
        "Location": "Malewadi",
        "Pincode": 412206,
        "State": "Maharashtra",
        "District": "Pune"
    },
    {
        "Location": "Malshiras",
        "Pincode": 412104,
        "State": "Maharashtra",
        "District": "Pune"
    },
    {
        "Location": "Malthan",
        "Pincode": 412218,
        "State": "Maharashtra",
        "District": "Pune"
    },
    {
        "Location": "Manappawasti",
        "Pincode": 413110,
        "State": "Maharashtra",
        "District": "Pune"
    },
    {
        "Location": "Manchar",
        "Pincode": 410503,
        "State": "Maharashtra",
        "District": "Pune"
    },
    {
        "Location": "Mandave",
        "Pincode": 412409,
        "State": "Maharashtra",
        "District": "Pune"
    },
    {
        "Location": "Mandavgan Farata",
        "Pincode": 412211,
        "State": "Maharashtra",
        "District": "Pune"
    },
    {
        "Location": "Mandhar",
        "Pincode": 412311,
        "State": "Maharashtra",
        "District": "Pune"
    },
    {
        "Location": "Mandki",
        "Pincode": 412305,
        "State": "Maharashtra",
        "District": "Pune"
    },
    {
        "Location": "Mandvi Bk",
        "Pincode": 411023,
        "State": "Maharashtra",
        "District": "Pune"
    },
    {
        "Location": "Mangalwar Peth",
        "Pincode": 411011,
        "State": "Maharashtra",
        "District": "Pune"
    },
    {
        "Location": "Mangaon",
        "Pincode": 412107,
        "State": "Maharashtra",
        "District": "Pune"
    },
    {
        "Location": "Mangrul",
        "Pincode": 412410,
        "State": "Maharashtra",
        "District": "Pune"
    },
    {
        "Location": "Manikdoh",
        "Pincode": 410502,
        "State": "Maharashtra",
        "District": "Pune"
    },
    {
        "Location": "Manjal Asani",
        "Pincode": 412213,
        "State": "Maharashtra",
        "District": "Pune"
    },
    {
        "Location": "Manjari Bk",
        "Pincode": 412307,
        "State": "Maharashtra",
        "District": "Pune"
    },
    {
        "Location": "Manjari Farm",
        "Pincode": 412307,
        "State": "Maharashtra",
        "District": "Pune"
    },
    {
        "Location": "Margasni",
        "Pincode": 412213,
        "State": "Maharashtra",
        "District": "Pune"
    },
    {
        "Location": "Markal",
        "Pincode": 412105,
        "State": "Maharashtra",
        "District": "Pune"
    },
    {
        "Location": "Market Yard",
        "Pincode": 411037,
        "State": "Maharashtra",
        "District": "Pune"
    },
    {
        "Location": "Marunji",
        "Pincode": 411057,
        "State": "Maharashtra",
        "District": "Pune"
    },
    {
        "Location": "Masulkar Colony",
        "Pincode": 411018,
        "State": "Maharashtra",
        "District": "Pune"
    },
    {
        "Location": "Mavdi Kade pathar",
        "Pincode": 412303,
        "State": "Maharashtra",
        "District": "Pune"
    },
    {
        "Location": "Medad",
        "Pincode": 413102,
        "State": "Maharashtra",
        "District": "Pune"
    },
    {
        "Location": "Mekhali",
        "Pincode": 413102,
        "State": "Maharashtra",
        "District": "Pune"
    },
    {
        "Location": "Midc Kurkumbh",
        "Pincode": 413802,
        "State": "Maharashtra",
        "District": "Pune"
    },
    {
        "Location": "Midc Ranjangaon ganpati",
        "Pincode": 412220,
        "State": "Maharashtra",
        "District": "Pune"
    },
    {
        "Location": "Model Colony",
        "Pincode": 411016,
        "State": "Maharashtra",
        "District": "Pune"
    },
    {
        "Location": "Mohamad Wadi",
        "Pincode": 411028,
        "State": "Maharashtra",
        "District": "Pune"
    },
    {
        "Location": "Morgaon",
        "Pincode": 412304,
        "State": "Maharashtra",
        "District": "Pune"
    },
    {
        "Location": "Mose Bk",
        "Pincode": 412107,
        "State": "Maharashtra",
        "District": "Pune"
    },
    {
        "Location": "Mose Kh",
        "Pincode": 412107,
        "State": "Maharashtra",
        "District": "Pune"
    },
    {
        "Location": "Moshi",
        "Pincode": 412105,
        "State": "Maharashtra",
        "District": "Pune"
    },
    {
        "Location": "Mudhale",
        "Pincode": 413110,
        "State": "Maharashtra",
        "District": "Pune"
    },
    {
        "Location": "Mukhai",
        "Pincode": 412208,
        "State": "Maharashtra",
        "District": "Pune"
    },
    {
        "Location": "Mundhva",
        "Pincode": 411036,
        "State": "Maharashtra",
        "District": "Pune"
    },
    {
        "Location": "Mundhva Av",
        "Pincode": 411036,
        "State": "Maharashtra",
        "District": "Pune"
    },
    {
        "Location": "Murti Modhave",
        "Pincode": 412304,
        "State": "Maharashtra",
        "District": "Pune"
    },
    {
        "Location": "Murum",
        "Pincode": 412306,
        "State": "Maharashtra",
        "District": "Pune"
    },
    {
        "Location": "Muthe",
        "Pincode": 411042,
        "State": "Maharashtra",
        "District": "Pune"
    },
    {
        "Location": "N I b m",
        "Pincode": 411048,
        "State": "Maharashtra",
        "District": "Pune"
    },
    {
        "Location": "N.C.l. pune",
        "Pincode": 411008,
        "State": "Maharashtra",
        "District": "Pune"
    },
    {
        "Location": "N.D.a. khadakwasla",
        "Pincode": 411023,
        "State": "Maharashtra",
        "District": "Pune"
    },
    {
        "Location": "N.I.a.",
        "Pincode": 411045,
        "State": "Maharashtra",
        "District": "Pune"
    },
    {
        "Location": "N.W. college",
        "Pincode": 411001,
        "State": "Maharashtra",
        "District": "Pune"
    },
    {
        "Location": "Naiphad",
        "Pincode": 412402,
        "State": "Maharashtra",
        "District": "Pune"
    },
    {
        "Location": "Nalavane",
        "Pincode": 412410,
        "State": "Maharashtra",
        "District": "Pune"
    },
    {
        "Location": "Nana Peth",
        "Pincode": 411002,
        "State": "Maharashtra",
        "District": "Pune"
    },
    {
        "Location": "Nanded",
        "Pincode": 411041,
        "State": "Maharashtra",
        "District": "Pune"
    },
    {
        "Location": "Nandgaon",
        "Pincode": 412108,
        "State": "Maharashtra",
        "District": "Pune"
    },
    {
        "Location": "Nane",
        "Pincode": 410405,
        "State": "Maharashtra",
        "District": "Pune"
    },
    {
        "Location": "Nangaon",
        "Pincode": 412203,
        "State": "Maharashtra",
        "District": "Pune"
    },
    {
        "Location": "Nanvij",
        "Pincode": 413801,
        "State": "Maharashtra",
        "District": "Pune"
    },
    {
        "Location": "Narayan Peth",
        "Pincode": 411030,
        "State": "Maharashtra",
        "District": "Pune"
    },
    {
        "Location": "Narayangaon",
        "Pincode": 410504,
        "State": "Maharashtra",
        "District": "Pune"
    },
    {
        "Location": "Narodi",
        "Pincode": 410503,
        "State": "Maharashtra",
        "District": "Pune"
    },
    {
        "Location": "Nasrapur",
        "Pincode": 412213,
        "State": "Maharashtra",
        "District": "Pune"
    },
    {
        "Location": "Natambi",
        "Pincode": 412206,
        "State": "Maharashtra",
        "District": "Pune"
    },
    {
        "Location": "Nathachi Wadi",
        "Pincode": 412214,
        "State": "Maharashtra",
        "District": "Pune"
    },
    {
        "Location": "Navsahyadri",
        "Pincode": 411052,
        "State": "Maharashtra",
        "District": "Pune"
    },
    {
        "Location": "Naygaon",
        "Pincode": 412104,
        "State": "Maharashtra",
        "District": "Pune"
    },
    {
        "Location": "Nazare",
        "Pincode": 412206,
        "State": "Maharashtra",
        "District": "Pune"
    },
    {
        "Location": "Nazare Kade pathar",
        "Pincode": 412303,
        "State": "Maharashtra",
        "District": "Pune"
    },
    {
        "Location": "Nehrunagar",
        "Pincode": 411018,
        "State": "Maharashtra",
        "District": "Pune"
    },
    {
        "Location": "Nere",
        "Pincode": 412206,
        "State": "Maharashtra",
        "District": "Pune"
    },
    {
        "Location": "Netwad",
        "Pincode": 412409,
        "State": "Maharashtra",
        "District": "Pune"
    },
    {
        "Location": "Nhavare",
        "Pincode": 412211,
        "State": "Maharashtra",
        "District": "Pune"
    },
    {
        "Location": "Nhavi",
        "Pincode": 413132,
        "State": "Maharashtra",
        "District": "Pune"
    },
    {
        "Location": "Nil",
        "Pincode": 411031,
        "State": "Maharashtra",
        "District": "Pune"
    },
    {
        "Location": "Nimbut",
        "Pincode": 412102,
        "State": "Maharashtra",
        "District": "Pune"
    },
    {
        "Location": "Nimgaon Bhogi",
        "Pincode": 412220,
        "State": "Maharashtra",
        "District": "Pune"
    },
    {
        "Location": "Nimgaon Ketki",
        "Pincode": 413120,
        "State": "Maharashtra",
        "District": "Pune"
    },
    {
        "Location": "Nimgaon Khed",
        "Pincode": 410505,
        "State": "Maharashtra",
        "District": "Pune"
    },
    {
        "Location": "Nimgaon Mahalungi",
        "Pincode": 412209,
        "State": "Maharashtra",
        "District": "Pune"
    },
    {
        "Location": "Nimgaon Sava",
        "Pincode": 410504,
        "State": "Maharashtra",
        "District": "Pune"
    },
    {
        "Location": "Nimgiri",
        "Pincode": 410502,
        "State": "Maharashtra",
        "District": "Pune"
    },
    {
        "Location": "Nimone",
        "Pincode": 412210,
        "State": "Maharashtra",
        "District": "Pune"
    },
    {
        "Location": "Nimsakhar",
        "Pincode": 413114,
        "State": "Maharashtra",
        "District": "Pune"
    },
    {
        "Location": "Nira R s",
        "Pincode": 412102,
        "State": "Maharashtra",
        "District": "Pune"
    },
    {
        "Location": "Nirawaghaj",
        "Pincode": 413102,
        "State": "Maharashtra",
        "District": "Pune"
    },
    {
        "Location": "Nirgude",
        "Pincode": 410502,
        "State": "Maharashtra",
        "District": "Pune"
    },
    {
        "Location": "Nirgudsar",
        "Pincode": 412406,
        "State": "Maharashtra",
        "District": "Pune"
    },
    {
        "Location": "Nirvi",
        "Pincode": 412210,
        "State": "Maharashtra",
        "District": "Pune"
    },
    {
        "Location": "Nirwangi",
        "Pincode": 413114,
        "State": "Maharashtra",
        "District": "Pune"
    },
    {
        "Location": "Ordanance Dep talegaon dabhade",
        "Pincode": 410506,
        "State": "Maharashtra",
        "District": "Pune"
    },
    {
        "Location": "Ordnance Factory dehu road",
        "Pincode": 412101,
        "State": "Maharashtra",
        "District": "Pune"
    },
    {
        "Location": "Osade",
        "Pincode": 411042,
        "State": "Maharashtra",
        "District": "Pune"
    },
    {
        "Location": "Otur",
        "Pincode": 412409,
        "State": "Maharashtra",
        "District": "Pune"
    },
    {
        "Location": "Ozar",
        "Pincode": 410504,
        "State": "Maharashtra",
        "District": "Pune"
    },
    {
        "Location": "P.C.n.t.",
        "Pincode": 411044,
        "State": "Maharashtra",
        "District": "Pune"
    },
    {
        "Location": "Pabal",
        "Pincode": 412403,
        "State": "Maharashtra",
        "District": "Pune"
    },
    {
        "Location": "Pabe",
        "Pincode": 412212,
        "State": "Maharashtra",
        "District": "Pune"
    },
    {
        "Location": "Padvi",
        "Pincode": 412203,
        "State": "Maharashtra",
        "District": "Pune"
    },
    {
        "Location": "Pait",
        "Pincode": 410505,
        "State": "Maharashtra",
        "District": "Pune"
    },
    {
        "Location": "Palasdeo",
        "Pincode": 413132,
        "State": "Maharashtra",
        "District": "Pune"
    },
    {
        "Location": "Palu",
        "Pincode": 410505,
        "State": "Maharashtra",
        "District": "Pune"
    },
    {
        "Location": "Panawadi",
        "Pincode": 412301,
        "State": "Maharashtra",
        "District": "Pune"
    },
    {
        "Location": "Pandare",
        "Pincode": 413110,
        "State": "Maharashtra",
        "District": "Pune"
    },
    {
        "Location": "Pandheshwar",
        "Pincode": 412303,
        "State": "Maharashtra",
        "District": "Pune"
    },
    {
        "Location": "Pangare",
        "Pincode": 412301,
        "State": "Maharashtra",
        "District": "Pune"
    },
    {
        "Location": "Pangari",
        "Pincode": 412206,
        "State": "Maharashtra",
        "District": "Pune"
    },
    {
        "Location": "Panshet",
        "Pincode": 412107,
        "State": "Maharashtra",
        "District": "Pune"
    },
    {
        "Location": "Pargaon",
        "Pincode": 412203,
        "State": "Maharashtra",
        "District": "Pune"
    },
    {
        "Location": "Pargaon Memane",
        "Pincode": 412104,
        "State": "Maharashtra",
        "District": "Pune"
    },
    {
        "Location": "Pargaon Tarfe ala",
        "Pincode": 410504,
        "State": "Maharashtra",
        "District": "Pune"
    },
    {
        "Location": "Pargaon Tarfe avasari",
        "Pincode": 412406,
        "State": "Maharashtra",
        "District": "Pune"
    },
    {
        "Location": "Pargaon Tarfe khed",
        "Pincode": 410512,
        "State": "Maharashtra",
        "District": "Pune"
    },
    {
        "Location": "Pargaon Tarfe madh",
        "Pincode": 412409,
        "State": "Maharashtra",
        "District": "Pune"
    },
    {
        "Location": "Parinche",
        "Pincode": 412311,
        "State": "Maharashtra",
        "District": "Pune"
    },
    {
        "Location": "Parunde",
        "Pincode": 410502,
        "State": "Maharashtra",
        "District": "Pune"
    },
    {
        "Location": "Parvati",
        "Pincode": 411009,
        "State": "Maharashtra",
        "District": "Pune"
    },
    {
        "Location": "Parvati Gaon",
        "Pincode": 411009,
        "State": "Maharashtra",
        "District": "Pune"
    },
    {
        "Location": "Parwadi",
        "Pincode": 413130,
        "State": "Maharashtra",
        "District": "Pune"
    },
    {
        "Location": "Pasure",
        "Pincode": 412206,
        "State": "Maharashtra",
        "District": "Pune"
    },
    {
        "Location": "Patas",
        "Pincode": 412219,
        "State": "Maharashtra",
        "District": "Pune"
    },
    {
        "Location": "Paud",
        "Pincode": 412108,
        "State": "Maharashtra",
        "District": "Pune"
    },
    {
        "Location": "Pawananagar",
        "Pincode": 410406,
        "State": "Maharashtra",
        "District": "Pune"
    },
    {
        "Location": "Perne",
        "Pincode": 412216,
        "State": "Maharashtra",
        "District": "Pune"
    },
    {
        "Location": "Peth",
        "Pincode": 410512,
        "State": "Maharashtra",
        "District": "Pune"
    },
    {
        "Location": "Phulawade",
        "Pincode": 410509,
        "State": "Maharashtra",
        "District": "Pune"
    },
    {
        "Location": "Phursungi",
        "Pincode": 412308,
        "State": "Maharashtra",
        "District": "Pune"
    },
    {
        "Location": "Pimpalgaon Joga",
        "Pincode": 412409,
        "State": "Maharashtra",
        "District": "Pune"
    },
    {
        "Location": "Pimpalgaon Mahalunge",
        "Pincode": 410503,
        "State": "Maharashtra",
        "District": "Pune"
    },
    {
        "Location": "Pimpalgaon Tarfa narayangaon",
        "Pincode": 412401,
        "State": "Maharashtra",
        "District": "Pune"
    },
    {
        "Location": "Pimpalgaon Tarfe chakan",
        "Pincode": 410501,
        "State": "Maharashtra",
        "District": "Pune"
    },
    {
        "Location": "Pimpalgaon Tarfe ghoda",
        "Pincode": 412408,
        "State": "Maharashtra",
        "District": "Pune"
    },
    {
        "Location": "Pimpali",
        "Pincode": 413102,
        "State": "Maharashtra",
        "District": "Pune"
    },
    {
        "Location": "Pimpalwandi",
        "Pincode": 412412,
        "State": "Maharashtra",
        "District": "Pune"
    },
    {
        "Location": "Pimparkhed",
        "Pincode": 410504,
        "State": "Maharashtra",
        "District": "Pune"
    },
    {
        "Location": "Pimple",
        "Pincode": 412301,
        "State": "Maharashtra",
        "District": "Pune"
    },
    {
        "Location": "Pimpri",
        "Pincode": 412303,
        "State": "Maharashtra",
        "District": "Pune"
    },
    {
        "Location": "Pimpri Bk",
        "Pincode": 410505,
        "State": "Maharashtra",
        "District": "Pune"
    },
    {
        "Location": "Pimpri Colony",
        "Pincode": 411017,
        "State": "Maharashtra",
        "District": "Pune"
    },
    {
        "Location": "Pimpri P f",
        "Pincode": 411018,
        "State": "Maharashtra",
        "District": "Pune"
    },
    {
        "Location": "Pimpri Pendhar",
        "Pincode": 410504,
        "State": "Maharashtra",
        "District": "Pune"
    },
    {
        "Location": "Pimpri Sandas",
        "Pincode": 412216,
        "State": "Maharashtra",
        "District": "Pune"
    },
    {
        "Location": "Pimpri Waghire",
        "Pincode": 411017,
        "State": "Maharashtra",
        "District": "Pune"
    },
    {
        "Location": "Pingori",
        "Pincode": 412305,
        "State": "Maharashtra",
        "District": "Pune"
    },
    {
        "Location": "Pirangut",
        "Pincode": 411042,
        "State": "Maharashtra",
        "District": "Pune"
    },
    {
        "Location": "Pisarve",
        "Pincode": 412104,
        "State": "Maharashtra",
        "District": "Pune"
    },
    {
        "Location": "Pisavare",
        "Pincode": 412206,
        "State": "Maharashtra",
        "District": "Pune"
    },
    {
        "Location": "Pokhari",
        "Pincode": 410509,
        "State": "Maharashtra",
        "District": "Pune"
    },
    {
        "Location": "Pomgaon",
        "Pincode": 412108,
        "State": "Maharashtra",
        "District": "Pune"
    },
    {
        "Location": "Punawale",
        "Pincode": 411019,
        "State": "Maharashtra",
        "District": "Pune"
    },
    {
        "Location": "Pune",
        "Pincode": 411001,
        "State": "Maharashtra",
        "District": "Pune"
    },
    {
        "Location": "Pune Cantt east",
        "Pincode": 411001,
        "State": "Maharashtra",
        "District": "Pune"
    },
    {
        "Location": "Pune City",
        "Pincode": 411002,
        "State": "Maharashtra",
        "District": "Pune"
    },
    {
        "Location": "Pune New bazar",
        "Pincode": 411001,
        "State": "Maharashtra",
        "District": "Pune"
    },
    {
        "Location": "Pune R.s.",
        "Pincode": 411001,
        "State": "Maharashtra",
        "District": "Pune"
    },
    {
        "Location": "Pune Weather",
        "Pincode": 411005,
        "State": "Maharashtra",
        "District": "Pune"
    },
    {
        "Location": "R P t s khandala",
        "Pincode": 410302,
        "State": "Maharashtra",
        "District": "Pune"
    },
    {
        "Location": "Rahu",
        "Pincode": 412207,
        "State": "Maharashtra",
        "District": "Pune"
    },
    {
        "Location": "Rahu Pimpalgaon",
        "Pincode": 412214,
        "State": "Maharashtra",
        "District": "Pune"
    },
    {
        "Location": "Rajegaon",
        "Pincode": 413105,
        "State": "Maharashtra",
        "District": "Pune"
    },
    {
        "Location": "Rajewadi",
        "Pincode": 412104,
        "State": "Maharashtra",
        "District": "Pune"
    },
    {
        "Location": "Rajgurunagar",
        "Pincode": 410505,
        "State": "Maharashtra",
        "District": "Pune"
    },
    {
        "Location": "Rajpur",
        "Pincode": 410509,
        "State": "Maharashtra",
        "District": "Pune"
    },
    {
        "Location": "Rajur",
        "Pincode": 410502,
        "State": "Maharashtra",
        "District": "Pune"
    },
    {
        "Location": "Rajuri",
        "Pincode": 412104,
        "State": "Maharashtra",
        "District": "Pune"
    },
    {
        "Location": "Rakh",
        "Pincode": 412305,
        "State": "Maharashtra",
        "District": "Pune"
    },
    {
        "Location": "Rangaon",
        "Pincode": 413114,
        "State": "Maharashtra",
        "District": "Pune"
    },
    {
        "Location": "Range Hills",
        "Pincode": 411020,
        "State": "Maharashtra",
        "District": "Pune"
    },
    {
        "Location": "Ranjane",
        "Pincode": 411042,
        "State": "Maharashtra",
        "District": "Pune"
    },
    {
        "Location": "Ranjangaon Ganpati",
        "Pincode": 412209,
        "State": "Maharashtra",
        "District": "Pune"
    },
    {
        "Location": "Ranjangaon Sandas",
        "Pincode": 412211,
        "State": "Maharashtra",
        "District": "Pune"
    },
    {
        "Location": "Ranjani",
        "Pincode": 410504,
        "State": "Maharashtra",
        "District": "Pune"
    },
    {
        "Location": "Ranmala",
        "Pincode": 412303,
        "State": "Maharashtra",
        "District": "Pune"
    },
    {
        "Location": "Rase",
        "Pincode": 410501,
        "State": "Maharashtra",
        "District": "Pune"
    },
    {
        "Location": "Rashtra Bhasha bhavan",
        "Pincode": 411030,
        "State": "Maharashtra",
        "District": "Pune"
    },
    {
        "Location": "Rasta Peth",
        "Pincode": 411011,
        "State": "Maharashtra",
        "District": "Pune"
    },
    {
        "Location": "Ravangaon",
        "Pincode": 413130,
        "State": "Maharashtra",
        "District": "Pune"
    },
    {
        "Location": "Ravet",
        "Pincode": 412101,
        "State": "Maharashtra",
        "District": "Pune"
    },
    {
        "Location": "Raviwar Peth",
        "Pincode": 411002,
        "State": "Maharashtra",
        "District": "Pune"
    },
    {
        "Location": "Rayari",
        "Pincode": 412206,
        "State": "Maharashtra",
        "District": "Pune"
    },
    {
        "Location": "Redni",
        "Pincode": 413114,
        "State": "Maharashtra",
        "District": "Pune"
    },
    {
        "Location": "Retwadi",
        "Pincode": 410505,
        "State": "Maharashtra",
        "District": "Pune"
    },
    {
        "Location": "Rihe",
        "Pincode": 411042,
        "State": "Maharashtra",
        "District": "Pune"
    },
    {
        "Location": "Rohokadi",
        "Pincode": 412409,
        "State": "Maharashtra",
        "District": "Pune"
    },
    {
        "Location": "Roti",
        "Pincode": 412219,
        "State": "Maharashtra",
        "District": "Pune"
    },
    {
        "Location": "Rule",
        "Pincode": 412107,
        "State": "Maharashtra",
        "District": "Pune"
    },
    {
        "Location": "Rupeenagar",
        "Pincode": 412114,
        "State": "Maharashtra",
        "District": "Pune"
    },
    {
        "Location": "S R p f daund",
        "Pincode": 413801,
        "State": "Maharashtra",
        "District": "Pune"
    },
    {
        "Location": "S.P. college",
        "Pincode": 411030,
        "State": "Maharashtra",
        "District": "Pune"
    },
    {
        "Location": "S.S.c.exam board",
        "Pincode": 411005,
        "State": "Maharashtra",
        "District": "Pune"
    },
    {
        "Location": "Saburdi",
        "Pincode": 412404,
        "State": "Maharashtra",
        "District": "Pune"
    },
    {
        "Location": "Sachapir Street",
        "Pincode": 411001,
        "State": "Maharashtra",
        "District": "Pune"
    },
    {
        "Location": "Sadalgaon",
        "Pincode": 412211,
        "State": "Maharashtra",
        "District": "Pune"
    },
    {
        "Location": "Sadashiv Peth",
        "Pincode": 411030,
        "State": "Maharashtra",
        "District": "Pune"
    },
    {
        "Location": "Sadumbre",
        "Pincode": 412109,
        "State": "Maharashtra",
        "District": "Pune"
    },
    {
        "Location": "Sahajpurwadi",
        "Pincode": 412202,
        "State": "Maharashtra",
        "District": "Pune"
    },
    {
        "Location": "Sakhar",
        "Pincode": 412213,
        "State": "Maharashtra",
        "District": "Pune"
    },
    {
        "Location": "Sakore",
        "Pincode": 410515,
        "State": "Maharashtra",
        "District": "Pune"
    },
    {
        "Location": "Sakurde",
        "Pincode": 412303,
        "State": "Maharashtra",
        "District": "Pune"
    },
    {
        "Location": "Sal",
        "Pincode": 412408,
        "State": "Maharashtra",
        "District": "Pune"
    },
    {
        "Location": "Salisbury Park",
        "Pincode": 411037,
        "State": "Maharashtra",
        "District": "Pune"
    },
    {
        "Location": "Salumbre",
        "Pincode": 412101,
        "State": "Maharashtra",
        "District": "Pune"
    },
    {
        "Location": "Sanaswadi",
        "Pincode": 412208,
        "State": "Maharashtra",
        "District": "Pune"
    },
    {
        "Location": "Sandbhorwadi(exptl)",
        "Pincode": 410505,
        "State": "Maharashtra",
        "District": "Pune"
    },
    {
        "Location": "Sangamner",
        "Pincode": 412206,
        "State": "Maharashtra",
        "District": "Pune"
    },
    {
        "Location": "Sangavi",
        "Pincode": 411027,
        "State": "Maharashtra",
        "District": "Pune"
    },
    {
        "Location": "Sangrun",
        "Pincode": 411042,
        "State": "Maharashtra",
        "District": "Pune"
    },
    {
        "Location": "Sangvi",
        "Pincode": 413102,
        "State": "Maharashtra",
        "District": "Pune"
    },
    {
        "Location": "Sansar",
        "Pincode": 413104,
        "State": "Maharashtra",
        "District": "Pune"
    },
    {
        "Location": "Sapkalwadi",
        "Pincode": 413104,
        "State": "Maharashtra",
        "District": "Pune"
    },
    {
        "Location": "Sarati",
        "Pincode": 413103,
        "State": "Maharashtra",
        "District": "Pune"
    },
    {
        "Location": "Sarole",
        "Pincode": 412205,
        "State": "Maharashtra",
        "District": "Pune"
    },
    {
        "Location": "Sasanenagar",
        "Pincode": 411028,
        "State": "Maharashtra",
        "District": "Pune"
    },
    {
        "Location": "Saswad",
        "Pincode": 412301,
        "State": "Maharashtra",
        "District": "Pune"
    },
    {
        "Location": "Sate",
        "Pincode": 412106,
        "State": "Maharashtra",
        "District": "Pune"
    },
    {
        "Location": "Saval",
        "Pincode": 413133,
        "State": "Maharashtra",
        "District": "Pune"
    },
    {
        "Location": "Savargaon",
        "Pincode": 412401,
        "State": "Maharashtra",
        "District": "Pune"
    },
    {
        "Location": "Savindane",
        "Pincode": 412218,
        "State": "Maharashtra",
        "District": "Pune"
    },
    {
        "Location": "Saygaon",
        "Pincode": 412404,
        "State": "Maharashtra",
        "District": "Pune"
    },
    {
        "Location": "Shaniwar Peth",
        "Pincode": 411030,
        "State": "Maharashtra",
        "District": "Pune"
    },
    {
        "Location": "Shelgaon",
        "Pincode": 413114,
        "State": "Maharashtra",
        "District": "Pune"
    },
    {
        "Location": "Shere",
        "Pincode": 412108,
        "State": "Maharashtra",
        "District": "Pune"
    },
    {
        "Location": "Shetfalgade",
        "Pincode": 413130,
        "State": "Maharashtra",
        "District": "Pune"
    },
    {
        "Location": "Shetphal Haveli",
        "Pincode": 413103,
        "State": "Maharashtra",
        "District": "Pune"
    },
    {
        "Location": "Shiavane",
        "Pincode": 410506,
        "State": "Maharashtra",
        "District": "Pune"
    },
    {
        "Location": "Shikrapur",
        "Pincode": 412208,
        "State": "Maharashtra",
        "District": "Pune"
    },
    {
        "Location": "Shind",
        "Pincode": 412206,
        "State": "Maharashtra",
        "District": "Pune"
    },
    {
        "Location": "Shindavane",
        "Pincode": 412202,
        "State": "Maharashtra",
        "District": "Pune"
    },
    {
        "Location": "Shindewadi",
        "Pincode": 412205,
        "State": "Maharashtra",
        "District": "Pune"
    },
    {
        "Location": "Shinoli",
        "Pincode": 410516,
        "State": "Maharashtra",
        "District": "Pune"
    },
    {
        "Location": "Shirapur",
        "Pincode": 413801,
        "State": "Maharashtra",
        "District": "Pune"
    },
    {
        "Location": "Shirasane",
        "Pincode": 413110,
        "State": "Maharashtra",
        "District": "Pune"
    },
    {
        "Location": "Shirasgaonkata",
        "Pincode": 412210,
        "State": "Maharashtra",
        "District": "Pune"
    },
    {
        "Location": "Shiravali",
        "Pincode": 413102,
        "State": "Maharashtra",
        "District": "Pune"
    },
    {
        "Location": "Shirgaon",
        "Pincode": 412402,
        "State": "Maharashtra",
        "District": "Pune"
    },
    {
        "Location": "Shirkoli",
        "Pincode": 412107,
        "State": "Maharashtra",
        "District": "Pune"
    },
    {
        "Location": "Shiroli",
        "Pincode": 410505,
        "State": "Maharashtra",
        "District": "Pune"
    },
    {
        "Location": "Shiroli B k",
        "Pincode": 410511,
        "State": "Maharashtra",
        "District": "Pune"
    },
    {
        "Location": "Shirsatwadi",
        "Pincode": 413114,
        "State": "Maharashtra",
        "District": "Pune"
    },
    {
        "Location": "Shirsuphal",
        "Pincode": 413102,
        "State": "Maharashtra",
        "District": "Pune"
    },
    {
        "Location": "Shirur",
        "Pincode": 412210,
        "State": "Maharashtra",
        "District": "Pune"
    },
    {
        "Location": "Shivaji Housing society",
        "Pincode": 411016,
        "State": "Maharashtra",
        "District": "Pune"
    },
    {
        "Location": "Shivajinagar",
        "Pincode": 411005,
        "State": "Maharashtra",
        "District": "Pune"
    },
    {
        "Location": "Shivali",
        "Pincode": 410406,
        "State": "Maharashtra",
        "District": "Pune"
    },
    {
        "Location": "Shivane",
        "Pincode": 411023,
        "State": "Maharashtra",
        "District": "Pune"
    },
    {
        "Location": "Shivare",
        "Pincode": 412205,
        "State": "Maharashtra",
        "District": "Pune"
    },
    {
        "Location": "Shivari",
        "Pincode": 412301,
        "State": "Maharashtra",
        "District": "Pune"
    },
    {
        "Location": "Shive",
        "Pincode": 410501,
        "State": "Maharashtra",
        "District": "Pune"
    },
    {
        "Location": "Shivnagar",
        "Pincode": 413116,
        "State": "Maharashtra",
        "District": "Pune"
    },
    {
        "Location": "Shriprayagdham",
        "Pincode": 412202,
        "State": "Maharashtra",
        "District": "Pune"
    },
    {
        "Location": "Shukrawar Peth",
        "Pincode": 411002,
        "State": "Maharashtra",
        "District": "Pune"
    },
    {
        "Location": "Solu",
        "Pincode": 412105,
        "State": "Maharashtra",
        "District": "Pune"
    },
    {
        "Location": "Someshwarnagar",
        "Pincode": 412306,
        "State": "Maharashtra",
        "District": "Pune"
    },
    {
        "Location": "Sonari",
        "Pincode": 412301,
        "State": "Maharashtra",
        "District": "Pune"
    },
    {
        "Location": "Sonawale",
        "Pincode": 410502,
        "State": "Maharashtra",
        "District": "Pune"
    },
    {
        "Location": "Songaon",
        "Pincode": 413102,
        "State": "Maharashtra",
        "District": "Pune"
    },
    {
        "Location": "Sopannagar",
        "Pincode": 412301,
        "State": "Maharashtra",
        "District": "Pune"
    },
    {
        "Location": "Srpf",
        "Pincode": 411022,
        "State": "Maharashtra",
        "District": "Pune"
    },
    {
        "Location": "Supa",
        "Pincode": 412204,
        "State": "Maharashtra",
        "District": "Pune"
    },
    {
        "Location": "Surwad",
        "Pincode": 413103,
        "State": "Maharashtra",
        "District": "Pune"
    },
    {
        "Location": "Sus",
        "Pincode": 411021,
        "State": "Maharashtra",
        "District": "Pune"
    },
    {
        "Location": "Swargate",
        "Pincode": 411042,
        "State": "Maharashtra",
        "District": "Pune"
    },
    {
        "Location": "Swargate Chowk",
        "Pincode": 411042,
        "State": "Maharashtra",
        "District": "Pune"
    },
    {
        "Location": "T.V. nagar",
        "Pincode": 411037,
        "State": "Maharashtra",
        "District": "Pune"
    },
    {
        "Location": "Takali Bhima",
        "Pincode": 412208,
        "State": "Maharashtra",
        "District": "Pune"
    },
    {
        "Location": "Takave Kh",
        "Pincode": 410405,
        "State": "Maharashtra",
        "District": "Pune"
    },
    {
        "Location": "Takawe Bk",
        "Pincode": 412106,
        "State": "Maharashtra",
        "District": "Pune"
    },
    {
        "Location": "Taklihaji",
        "Pincode": 412218,
        "State": "Maharashtra",
        "District": "Pune"
    },
    {
        "Location": "Talegaon Dabhade",
        "Pincode": 410506,
        "State": "Maharashtra",
        "District": "Pune"
    },
    {
        "Location": "Talegaon Dhamdhere",
        "Pincode": 412208,
        "State": "Maharashtra",
        "District": "Pune"
    },
    {
        "Location": "Talegaon G h",
        "Pincode": 410507,
        "State": "Maharashtra",
        "District": "Pune"
    },
    {
        "Location": "Taleghar",
        "Pincode": 410509,
        "State": "Maharashtra",
        "District": "Pune"
    },
    {
        "Location": "Taleran",
        "Pincode": 412409,
        "State": "Maharashtra",
        "District": "Pune"
    },
    {
        "Location": "Talwade",
        "Pincode": 412114,
        "State": "Maharashtra",
        "District": "Pune"
    },
    {
        "Location": "Tambad",
        "Pincode": 412213,
        "State": "Maharashtra",
        "District": "Pune"
    },
    {
        "Location": "Tambe",
        "Pincode": 410502,
        "State": "Maharashtra",
        "District": "Pune"
    },
    {
        "Location": "Tandali",
        "Pincode": 412211,
        "State": "Maharashtra",
        "District": "Pune"
    },
    {
        "Location": "Tandulwadi",
        "Pincode": 413102,
        "State": "Maharashtra",
        "District": "Pune"
    },
    {
        "Location": "Taparewadi",
        "Pincode": 412205,
        "State": "Maharashtra",
        "District": "Pune"
    },
    {
        "Location": "Tav",
        "Pincode": 412107,
        "State": "Maharashtra",
        "District": "Pune"
    },
    {
        "Location": "Tavshi",
        "Pincode": 413104,
        "State": "Maharashtra",
        "District": "Pune"
    },
    {
        "Location": "Tekawade",
        "Pincode": 412104,
        "State": "Maharashtra",
        "District": "Pune"
    },
    {
        "Location": "Telewadi",
        "Pincode": 412207,
        "State": "Maharashtra",
        "District": "Pune"
    },
    {
        "Location": "Thathawade",
        "Pincode": 411019,
        "State": "Maharashtra",
        "District": "Pune"
    },
    {
        "Location": "Thergaon",
        "Pincode": 411019,
        "State": "Maharashtra",
        "District": "Pune"
    },
    {
        "Location": "Theur",
        "Pincode": 412110,
        "State": "Maharashtra",
        "District": "Pune"
    },
    {
        "Location": "Thugaon",
        "Pincode": 410512,
        "State": "Maharashtra",
        "District": "Pune"
    },
    {
        "Location": "Tirpad",
        "Pincode": 410509,
        "State": "Maharashtra",
        "District": "Pune"
    },
    {
        "Location": "Titeghar",
        "Pincode": 412206,
        "State": "Maharashtra",
        "District": "Pune"
    },
    {
        "Location": "Tiwai Hills",
        "Pincode": 410513,
        "State": "Maharashtra",
        "District": "Pune"
    },
    {
        "Location": "Tokawade",
        "Pincode": 412402,
        "State": "Maharashtra",
        "District": "Pune"
    },
    {
        "Location": "Tondal",
        "Pincode": 412312,
        "State": "Maharashtra",
        "District": "Pune"
    },
    {
        "Location": "Udapur",
        "Pincode": 412409,
        "State": "Maharashtra",
        "District": "Pune"
    },
    {
        "Location": "Udhat",
        "Pincode": 413104,
        "State": "Maharashtra",
        "District": "Pune"
    },
    {
        "Location": "Umbraj",
        "Pincode": 412412,
        "State": "Maharashtra",
        "District": "Pune"
    },
    {
        "Location": "Umbre Navlakh",
        "Pincode": 410507,
        "State": "Maharashtra",
        "District": "Pune"
    },
    {
        "Location": "Undawadi K p",
        "Pincode": 413102,
        "State": "Maharashtra",
        "District": "Pune"
    },
    {
        "Location": "Undawadi Supa",
        "Pincode": 413102,
        "State": "Maharashtra",
        "District": "Pune"
    },
    {
        "Location": "Uralgaon",
        "Pincode": 412211,
        "State": "Maharashtra",
        "District": "Pune"
    },
    {
        "Location": "Uravade",
        "Pincode": 411042,
        "State": "Maharashtra",
        "District": "Pune"
    },
    {
        "Location": "Urse",
        "Pincode": 410506,
        "State": "Maharashtra",
        "District": "Pune"
    },
    {
        "Location": "Uruli Devachi",
        "Pincode": 412308,
        "State": "Maharashtra",
        "District": "Pune"
    },
    {
        "Location": "Urulikanchan",
        "Pincode": 412202,
        "State": "Maharashtra",
        "District": "Pune"
    },
    {
        "Location": "Utchil",
        "Pincode": 410502,
        "State": "Maharashtra",
        "District": "Pune"
    },
    {
        "Location": "Utroli",
        "Pincode": 412206,
        "State": "Maharashtra",
        "District": "Pune"
    },
    {
        "Location": "Uttamnagar",
        "Pincode": 411023,
        "State": "Maharashtra",
        "District": "Pune"
    },
    {
        "Location": "Vada",
        "Pincode": 412402,
        "State": "Maharashtra",
        "District": "Pune"
    },
    {
        "Location": "Vadaj",
        "Pincode": 410502,
        "State": "Maharashtra",
        "District": "Pune"
    },
    {
        "Location": "Vadapuri",
        "Pincode": 413106,
        "State": "Maharashtra",
        "District": "Pune"
    },
    {
        "Location": "Vadebholhai",
        "Pincode": 412207,
        "State": "Maharashtra",
        "District": "Pune"
    },
    {
        "Location": "Vadeshwar",
        "Pincode": 412106,
        "State": "Maharashtra",
        "District": "Pune"
    },
    {
        "Location": "Vadgaon",
        "Pincode": 412106,
        "State": "Maharashtra",
        "District": "Pune"
    },
    {
        "Location": "Vadgaon Anand",
        "Pincode": 412411,
        "State": "Maharashtra",
        "District": "Pune"
    },
    {
        "Location": "Vadgaon Budruk",
        "Pincode": 411041,
        "State": "Maharashtra",
        "District": "Pune"
    },
    {
        "Location": "Vadgaon Dalache",
        "Pincode": 412206,
        "State": "Maharashtra",
        "District": "Pune"
    },
    {
        "Location": "Vadgaon Ghenanad",
        "Pincode": 410501,
        "State": "Maharashtra",
        "District": "Pune"
    },
    {
        "Location": "Vadgaon Kandali",
        "Pincode": 412412,
        "State": "Maharashtra",
        "District": "Pune"
    },
    {
        "Location": "Vadgaon Kashimbeg",
        "Pincode": 410503,
        "State": "Maharashtra",
        "District": "Pune"
    },
    {
        "Location": "Vadgaon Nimbalkar",
        "Pincode": 412103,
        "State": "Maharashtra",
        "District": "Pune"
    },
    {
        "Location": "Vadgaon Peer",
        "Pincode": 410510,
        "State": "Maharashtra",
        "District": "Pune"
    },
    {
        "Location": "Vadgaon Rasai",
        "Pincode": 412211,
        "State": "Maharashtra",
        "District": "Pune"
    },
    {
        "Location": "Vadgaon Sahani",
        "Pincode": 412401,
        "State": "Maharashtra",
        "District": "Pune"
    },
    {
        "Location": "Vadgaon Sheri",
        "Pincode": 411014,
        "State": "Maharashtra",
        "District": "Pune"
    },
    {
        "Location": "Vadhu Bk",
        "Pincode": 412216,
        "State": "Maharashtra",
        "District": "Pune"
    },
    {
        "Location": "Vadki",
        "Pincode": 412308,
        "State": "Maharashtra",
        "District": "Pune"
    },
    {
        "Location": "Vagholi",
        "Pincode": 412207,
        "State": "Maharashtra",
        "District": "Pune"
    },
    {
        "Location": "Valati",
        "Pincode": 410504,
        "State": "Maharashtra",
        "District": "Pune"
    },
    {
        "Location": "Valha",
        "Pincode": 412305,
        "State": "Maharashtra",
        "District": "Pune"
    },
    {
        "Location": "Vanpuri",
        "Pincode": 412301,
        "State": "Maharashtra",
        "District": "Pune"
    },
    {
        "Location": "Vaphgaon",
        "Pincode": 410505,
        "State": "Maharashtra",
        "District": "Pune"
    },
    {
        "Location": "Varale",
        "Pincode": 410507,
        "State": "Maharashtra",
        "District": "Pune"
    },
    {
        "Location": "Vardade",
        "Pincode": 411042,
        "State": "Maharashtra",
        "District": "Pune"
    },
    {
        "Location": "Varkute Kh",
        "Pincode": 413120,
        "State": "Maharashtra",
        "District": "Pune"
    },
    {
        "Location": "Varodi Kh",
        "Pincode": 412206,
        "State": "Maharashtra",
        "District": "Pune"
    },
    {
        "Location": "Varoti Bk",
        "Pincode": 412212,
        "State": "Maharashtra",
        "District": "Pune"
    },
    {
        "Location": "Varude",
        "Pincode": 412209,
        "State": "Maharashtra",
        "District": "Pune"
    },
    {
        "Location": "Varvand",
        "Pincode": 412215,
        "State": "Maharashtra",
        "District": "Pune"
    },
    {
        "Location": "Varye Bk",
        "Pincode": 412205,
        "State": "Maharashtra",
        "District": "Pune"
    },
    {
        "Location": "Vasuli",
        "Pincode": 410501,
        "State": "Maharashtra",
        "District": "Pune"
    },
    {
        "Location": "Veer",
        "Pincode": 412312,
        "State": "Maharashtra",
        "District": "Pune"
    },
    {
        "Location": "Vehergaon",
        "Pincode": 410405,
        "State": "Maharashtra",
        "District": "Pune"
    },
    {
        "Location": "Velhe",
        "Pincode": 412212,
        "State": "Maharashtra",
        "District": "Pune"
    },
    {
        "Location": "Velu",
        "Pincode": 412205,
        "State": "Maharashtra",
        "District": "Pune"
    },
    {
        "Location": "Velvand",
        "Pincode": 412206,
        "State": "Maharashtra",
        "District": "Pune"
    },
    {
        "Location": "Venavadi",
        "Pincode": 412206,
        "State": "Maharashtra",
        "District": "Pune"
    },
    {
        "Location": "Vetale",
        "Pincode": 412404,
        "State": "Maharashtra",
        "District": "Pune"
    },
    {
        "Location": "Vidyanagar",
        "Pincode": 411032,
        "State": "Maharashtra",
        "District": "Pune"
    },
    {
        "Location": "Vishnupuri",
        "Pincode": 410507,
        "State": "Maharashtra",
        "District": "Pune"
    },
    {
        "Location": "Vishrantwadi",
        "Pincode": 411015,
        "State": "Maharashtra",
        "District": "Pune"
    },
    {
        "Location": "Vithalwadi",
        "Pincode": 412208,
        "State": "Maharashtra",
        "District": "Pune"
    },
    {
        "Location": "Vyahali",
        "Pincode": 413120,
        "State": "Maharashtra",
        "District": "Pune"
    },
    {
        "Location": "Waghapur",
        "Pincode": 412104,
        "State": "Maharashtra",
        "District": "Pune"
    },
    {
        "Location": "Wakad",
        "Pincode": 411057,
        "State": "Maharashtra",
        "District": "Pune"
    },
    {
        "Location": "Waki",
        "Pincode": 412306,
        "State": "Maharashtra",
        "District": "Pune"
    },
    {
        "Location": "Waki Bk",
        "Pincode": 410501,
        "State": "Maharashtra",
        "District": "Pune"
    },
    {
        "Location": "Walchandnagar",
        "Pincode": 413114,
        "State": "Maharashtra",
        "District": "Pune"
    },
    {
        "Location": "Walki",
        "Pincode": 412207,
        "State": "Maharashtra",
        "District": "Pune"
    },
    {
        "Location": "Walunj",
        "Pincode": 412303,
        "State": "Maharashtra",
        "District": "Pune"
    },
    {
        "Location": "Wangani",
        "Pincode": 412213,
        "State": "Maharashtra",
        "District": "Pune"
    },
    {
        "Location": "Wanowarie",
        "Pincode": 411040,
        "State": "Maharashtra",
        "District": "Pune"
    },
    {
        "Location": "Warje",
        "Pincode": 411058,
        "State": "Maharashtra",
        "District": "Pune"
    },
    {
        "Location": "Washere",
        "Pincode": 412404,
        "State": "Maharashtra",
        "District": "Pune"
    },
    {
        "Location": "Watluj",
        "Pincode": 413105,
        "State": "Maharashtra",
        "District": "Pune"
    },
    {
        "Location": "Winzer",
        "Pincode": 412213,
        "State": "Maharashtra",
        "District": "Pune"
    },
    {
        "Location": "Yamunanagar",
        "Pincode": 411044,
        "State": "Maharashtra",
        "District": "Pune"
    },
    {
        "Location": "Yavat",
        "Pincode": 412214,
        "State": "Maharashtra",
        "District": "Pune"
    },
    {
        "Location": "Yavat R s",
        "Pincode": 412214,
        "State": "Maharashtra",
        "District": "Pune"
    },
    {
        "Location": "Yedgaon",
        "Pincode": 410504,
        "State": "Maharashtra",
        "District": "Pune"
    },
    {
        "Location": "Yenere",
        "Pincode": 410502,
        "State": "Maharashtra",
        "District": "Pune"
    },
    {
        "Location": "Yeniye Bk",
        "Pincode": 410505,
        "State": "Maharashtra",
        "District": "Pune"
    },
    {
        "Location": "Yerwada",
        "Pincode": 411006,
        "State": "Maharashtra",
        "District": "Pune"
    },
    {
        "Location": "Yerwada T.s.",
        "Pincode": 411001,
        "State": "Maharashtra",
        "District": "Pune"
    }
]